NORAD_CAT_ID,OBJECT_NAME,OBJECT_TYPE,EPOCH,MEAN_MOTION,ECCENTRICITY,INCLINATION,RA_OF_ASC_NODE,ARG_OF_PERICENTER,MEAN_ANOMALY,BSTAR,MEAN_MOTION_DOT,MEAN_MOTION_DDOT,TLE_LINE0,TLE_LINE1,TLE_LINE2,SEMIMAJOR_AXIS,PERIOD,APOGEE,PERIGEE,DECAYED
53565.0,STARLINK-4575,PAYLOAD,2024-03-24 23:07:40,15.08855816,0.0001906,53.2174,22.8103,100.5732,259.5475,0.00047114,7.221e-05,0.0,0 STARLINK-4575,1 53565U 22101AQ  24084.96366157  .00007221  00000-0  47114-3 0  9993,2 53565  53.2174  22.8103 0001906 100.5732 259.5475 15.08855816 89201,6917.832,95.437,541.016,538.379,0.0
53565.0,STARLINK-4575,PAYLOAD,2024-03-25 02:18:26,15.08870251,0.00014,53.2187,22.2106,72.8775,287.237,0.00084649,0.00013221,0.0,0 STARLINK-4575,1 53565U 22101AQ  24085.09613930  .00013221  00000-0  84649-3 0  9993,2 53565  53.2187  22.2106 0001400  72.8775 287.2370 15.08870251 88569,6917.788,95.436,540.621,538.684,0.0
53565.0,STARLINK-4575,PAYLOAD,2024-03-25 22:58:28,15.08815995,0.0001222,53.2194,18.3442,100.9387,259.1742,4.8503e-05,4.84e-06,0.0,0 STARLINK-4575,1 53565U 22101AQ  24085.95727794  .00000484  00000-0  48503-4 0  9999,2 53565  53.2194  18.3442 0001222 100.9387 259.1742 15.08815995 89353,6917.954,95.439,540.664,538.973,0.0
53565.0,STARLINK-4575,PAYLOAD,2024-03-26 03:44:38,15.08813681,0.0001257,53.2184,17.4524,100.768,259.3454,-0.00019507,-3.389e-05,0.0,0 STARLINK-4575,1 53565U 22101AQ  24086.15600169 -.00003389  00000-0 -19507-3 0  9998,2 53565  53.2184  17.4524 0001257 100.7680 259.3454 15.08813681 88727,6917.961,95.439,540.695,538.956,0.0
53565.0,STARLINK-4575,PAYLOAD,2024-03-26 05:20:01,15.08812201,0.0001236,53.2182,17.1542,99.7285,260.3846,-0.000137,-2.466e-05,0.0,0 STARLINK-4575,1 53565U 22101AQ  24086.22224428 -.00002466  00000-0 -13700-3 0  9990,2 53565  53.2182  17.1542 0001236  99.7285 260.3846 15.08812201 89395,6917.965,95.439,540.685,538.975,0.0
53565.0,STARLINK-4575,PAYLOAD,2024-03-26 22:49:16,15.08831053,0.0001266,53.218,13.8875,107.9188,252.1942,0.00032119,4.826e-05,0.0,0 STARLINK-4575,1 53565U 22101AQ  24086.95088411  .00004826  00000-0  32119-3 0  9995,2 53565  53.2180  13.8875 0001266 107.9188 252.1942 15.08831053 89507,6917.908,95.438,540.649,538.897,0.0
53565.0,STARLINK-4575,PAYLOAD,2024-03-27 02:00:02,15.08851326,0.0001335,53.218,13.2919,105.97,254.144,0.00057916,8.944e-05,0.0,0 STARLINK-4575,1 53565U 22101AQ  24087.08335757  .00008944  00000-0  57916-3 0  9995,2 53565  53.2180  13.2919 0001335 105.9700 254.1440 15.08851326 88863,6917.846,95.437,540.634,538.787,0.0
53565.0,STARLINK-4575,PAYLOAD,2024-03-27 11:32:21,15.08848013,0.0001031,53.2169,11.5077,97.5628,262.5481,0.00049039,7.527e-05,0.0,0 STARLINK-4575,1 53565U 22101AQ  24087.48079866  .00007527  00000-0  49039-3 0  9998,2 53565  53.2169  11.5077 0001031  97.5628 262.5481 15.08848013 88928,6917.856,95.437,540.434,539.008,0.0
53565.0,STARLINK-4575,PAYLOAD,2024-03-27 19:29:17,15.08839462,0.0001864,53.2183,10.0191,107.5934,252.5262,0.00034383,5.188e-05,0.0,0 STARLINK-4575,1 53565U 22101AQ  24087.81200707  .00005188  00000-0  34383-3 0  9992,2 53565  53.2183  10.0191 0001864 107.5934 252.5262 15.08839462 88970,6917.882,95.438,541.037,538.458,0.0
53565.0,STARLINK-4575,PAYLOAD,2024-03-27 22:40:04,15.08831352,0.0001417,53.2179,9.4238,91.2046,268.9108,0.00028905,4.314e-05,0.0,0 STARLINK-4575,1 53565U 22101AQ  24087.94449079  .00004314  00000-0  28905-3 0  9996,2 53565  53.2179   9.4238 0001417  91.2046 268.9108 15.08831352 89652,6917.907,95.438,540.752,538.792,0.0
53565.0,STARLINK-4575,PAYLOAD,2024-03-28 11:23:08,15.0884791,0.0001017,53.217,7.0451,82.7857,277.3251,0.00022396,3.279e-05,0.0,0 STARLINK-4575,1 53565U 22101AQ  24088.47440158  .00003279  00000-0  22396-3 0  9991,2 53565  53.2170   7.0451 0001017  82.7857 277.3251 15.08847910 89734,6917.856,95.437,540.425,539.018,0.0
53565.0,STARLINK-4575,PAYLOAD,2024-03-28 22:30:50,15.08840135,0.0001362,53.2178,4.9648,97.4501,262.6646,-0.00021528,-3.712e-05,0.0,0 STARLINK-4575,1 53565U 22101AQ  24088.93808140 -.00003712  00000-0 -21528-3 0  9991,2 53565  53.2178   4.9648 0001362  97.4501 262.6646 15.08840135 89803,6917.88,95.438,540.687,538.803,0.0
53565.0,STARLINK-4575,PAYLOAD,2024-03-29 03:16:58,15.08855925,0.0001008,53.2162,4.0721,110.6065,249.5035,7.2277e-05,8.63e-06,0.0,0 STARLINK-4575,1 53565U 22101AQ  24089.13679312  .00000863  00000-0  72277-4 0  9991,2 53565  53.2162   4.0721 0001008 110.6065 249.5035 15.08855925 89178,6917.832,95.437,540.394,538.999,0.0
53565.0,STARLINK-4575,PAYLOAD,2024-03-29 11:13:55,15.08848078,0.0001467,53.2175,2.5858,79.8747,280.241,3.6322e-05,2.9e-06,0.0,0 STARLINK-4575,1 53565U 22101AQ  24089.46799822  .00000290  00000-0  36322-4 0  9991,2 53565  53.2175   2.5858 0001467  79.8747 280.2410 15.08848078 89224,6917.856,95.437,540.736,538.706,0.0
53565.0,STARLINK-4575,PAYLOAD,2024-03-29 22:21:37,15.08843349,0.0001615,53.2191,0.5059,81.8008,278.3168,0.0001553,2.185e-05,0.0,0 STARLINK-4575,1 53565U 22101AQ  24089.93168104  .00002185  00000-0  15530-3 0  9998,2 53565  53.2191   0.5059 0001615  81.8008 278.3168 15.08843349 89955,6917.87,95.437,540.852,538.618,0.0
53565.0,STARLINK-4575,PAYLOAD,2024-03-30 11:04:42,15.08842879,0.000137,53.2178,358.1259,85.9103,274.2046,-1.0327e-05,-4.52e-06,0.0,0 STARLINK-4575,1 53565U 22101AQ  24090.46159932 -.00000452  00000-0 -10327-4 0  9994,2 53565  53.2178 358.1259 0001370  85.9103 274.2046 15.08842879 89376,6917.872,95.437,540.684,538.789,0.0
53565.0,STARLINK-4575,PAYLOAD,2024-03-30 22:12:24,15.0884094,0.0001783,53.2181,356.043,85.3505,274.7691,0.0001023,1.34e-05,0.0,0 STARLINK-4575,1 53565U 22101AQ  24090.92528249  .00001340  00000-0  10230-3 0  9993,2 53565  53.2181 356.0430 0001783  85.3505 274.7691 15.08840940 90107,6917.878,95.437,540.976,538.509,0.0
53565.0,STARLINK-4575,PAYLOAD,2024-03-31 10:55:29,15.08846936,0.0001251,53.217,353.6649,89.9075,270.206,7.3876e-05,8.88e-06,0.0,0 STARLINK-4575,1 53565U 22101AQ  24091.45519815  .00000888  00000-0  73876-4 0  9993,2 53565  53.2170 353.6649 0001251  89.9075 270.2060 15.08846936 90182,6917.859,95.437,540.59,538.859,0.0
53565.0,STARLINK-4575,PAYLOAD,2024-03-31 22:03:11,15.08844547,0.0001349,53.2168,351.5847,77.7749,282.3394,0.00012505,1.703e-05,0.0,0 STARLINK-4575,1 53565U 22101AQ  24091.91887910  .00001703  00000-0  12505-3 0  9996,2 53565  53.2168 351.5847 0001349  77.7749 282.3394 15.08844547 90255,6917.866,95.437,540.665,538.798,0.0
53565.0,STARLINK-4575,PAYLOAD,2024-03-31 23:38:34,15.08845961,0.0001343,53.2167,351.2872,79.1458,280.9685,0.00015008,2.102e-05,0.0,0 STARLINK-4575,1 53565U 22101AQ  24091.98511822  .00002102  00000-0  15008-3 0  9994,2 53565  53.2167 351.2872 0001343  79.1458 280.9685 15.08845961 89601,6917.862,95.437,540.656,538.798,0.0
53565.0,STARLINK-4575,PAYLOAD,2024-04-01 10:46:15,15.08849873,0.0001189,53.2164,349.2046,86.4929,273.6199,0.00010816,1.434e-05,0.0,0 STARLINK-4575,1 53565U 22101AQ  24092.44879394  .00001434  00000-0  10816-3 0  9996,2 53565  53.2164 349.2046 0001189  86.4929 273.6199 15.08849873 90337,6917.85,95.437,540.538,538.893,0.0
53565.0,STARLINK-4575,PAYLOAD,2024-04-01 20:18:35,15.08840243,0.0001543,53.218,347.4219,94.2825,265.8344,0.0001105,1.471e-05,0.0,0 STARLINK-4575,1 53565U 22101AQ  24092.84623984  .00001471  00000-0  11050-3 0  9994,2 53565  53.2180 347.4219 0001543  94.2825 265.8344 15.08840243 89732,6917.88,95.438,540.812,538.677,0.0
53565.0,STARLINK-4575,PAYLOAD,2024-04-02 02:40:07,15.08845982,0.0001428,53.2184,346.2296,109.9375,250.1772,6.5232e-05,7.51e-06,0.0,0 STARLINK-4575,1 53565U 22101AQ  24093.11119530  .00000751  00000-0  65232-4 0  9994,2 53565  53.2184 346.2296 0001428 109.9375 250.1772 15.08845982 90430,6917.862,95.437,540.715,538.739,0.0
53565.0,STARLINK-4575,PAYLOAD,2024-04-02 23:20:08,15.08839915,0.0001344,53.2172,342.3644,89.5101,270.6045,2.0182e-05,3.3e-07,0.0,0 STARLINK-4575,1 53565U 22101AQ  24093.97232131  .00000033  00000-0  20182-4 0  9999,2 53565  53.2172 342.3644 0001344  89.5101 270.6045 15.08839915 90561,6917.881,95.438,540.675,538.816,0.0
53565.0,STARLINK-4575,PAYLOAD,2024-04-03 16:49:23,15.08828005,0.0001225,53.2172,339.0937,96.3231,263.7901,4.8808e-05,4.89e-06,0.0,0 STARLINK-4575,1 53565U 22101AQ  24094.70096972  .00000489  00000-0  48808-4 0  9992,2 53565  53.2172 339.0937 0001225  96.3231 263.7901 15.08828005 90019,6917.917,95.438,540.629,538.935,0.0
53565.0,STARLINK-4575,PAYLOAD,2024-04-03 23:10:56,15.08825697,0.0001253,53.2165,337.9041,96.6043,263.5092,-2.1263e-05,-6.26e-06,0.0,0 STARLINK-4575,1 53565U 22101AQ  24094.96593554 -.00000626  00000-0 -21263-4 0  9999,2 53565  53.2165 337.9041 0001253  96.6043 263.5092 15.08825697 90719,6917.924,95.438,540.656,538.922,0.0
53565.0,STARLINK-4575,PAYLOAD,2024-04-04 02:21:43,15.08825731,0.0001154,53.217,337.3103,92.9102,267.2022,-4.4048e-05,-9.88e-06,0.0,0 STARLINK-4575,1 53565U 22101AQ  24095.09841732 -.00000988  00000-0 -44048-4 0  9995,2 53565  53.2170 337.3103 0001154  92.9102 267.2022 15.08825731 90738,6917.924,95.438,540.587,538.991,0.0
53565.0,STARLINK-4575,PAYLOAD,2024-04-04 19:50:57,15.08838975,0.0001056,53.2167,334.0387,80.4175,279.6937,5.7101e-06,-1.97e-06,0.0,0 STARLINK-4575,1 53565U 22101AQ  24095.82705235 -.00000197  00000-0  57101-5 0  9999,2 53565  53.2167 334.0387 0001056  80.4175 279.6937 15.08838975 90180,6917.884,95.438,540.479,539.018,0.0
53565.0,STARLINK-4575,PAYLOAD,2024-04-04 23:01:43,15.08840698,0.0001112,53.2172,333.4448,78.7229,281.3888,9.5463e-05,1.232e-05,0.0,0 STARLINK-4575,1 53565U 22101AQ  24095.95952874  .00001232  00000-0  95463-4 0  9998,2 53565  53.2172 333.4448 0001112  78.7229 281.3888 15.08840698 90865,6917.878,95.438,540.513,538.974,0.0
53565.0,STARLINK-4575,PAYLOAD,2024-04-05 08:34:01,15.08850937,0.0001141,53.2173,331.6606,80.6181,279.494,2.7552e-05,1.51e-06,0.0,0 STARLINK-4575,1 53565U 22101AQ  24096.35696335  .00000151  00000-0  27552-4 0  9993,2 53565  53.2173 331.6606 0001141  80.6181 279.4940 15.08850937 90261,6917.847,95.437,540.501,538.923,0.0
